[{"OBJECT_NAME":"STARLINK-6205","OBJECT_ID":"2023-083Y","EPOCH":"2026-03-09T22:00:01.999584","MEAN_MOTION":15.14035964,"ECCENTRICITY":0.00018199,"INCLINATION":43.0003,"RA_OF_ASC_NODE":79.6562,"ARG_OF_PERICENTER":276.7987,"MEAN_ANOMALY":125.782,"EPHEMERIS_TYPE":0,"CLASSIFICATION_TYPE":"U","NORAD_CAT_ID":56898,"ELEMENT_SET_NO":999,"REV_AT_EPOCH":557,"BSTAR":0.0035526049,"MEAN_MOTION_DOT":0.00066103,"MEAN_MOTION_DDOT":0},{"OBJECT_NAME":"CZ-6A DEB","OBJECT_ID":"2024-140XA","EPOCH":"2026-03-09T13:38:46.141440","MEAN_MOTION":14.97207457,"ECCENTRICITY":0.0079782,"INCLINATION":88.8472,"RA_OF_ASC_NODE":268.9899,"ARG_OF_PERICENTER":170.4337,"MEAN_ANOMALY":189.8439,"EPHEMERIS_TYPE":0,"CLASSIFICATION_TYPE":"U","NORAD_CAT_ID":61385,"ELEMENT_SET_NO":999,"REV_AT_EPOCH":8131,"BSTAR":0.0034461,"MEAN_MOTION_DOT":0.00042743,"MEAN_MOTION_DDOT":0}]
